{"type": "FeatureCollection", "features": [{"type": "Feature", "properties": {"norad_id": 50032, "name": "COSMOS 1408 DEB", "group": "cosmos-1408-debris", "lat": -53.71008236192938, "lon": 32.90032735355659, "alt_km": 446.0063960269972, "timestamp": "2025-12-27T17:24:57.675766+00:00", "meta": {"OBJECT_NAME": "COSMOS 1408 DEB", "OBJECT_ID": "1982-092RU", "EPOCH": "2025-12-27T09:53:01.667904", "MEAN_MOTION": 15.45840268, "ECCENTRICITY": 0.0016738, "INCLINATION": 82.5633, "RA_OF_ASC_NODE": 43.4687, "ARG_OF_PERICENTER": 154.9521, "MEAN_ANOMALY": 205.2544, "EPHEMERIS_TYPE": 0, "CLASSIFICATION_TYPE": "U", "NORAD_CAT_ID": 50032, "ELEMENT_SET_NO": 999, "REV_AT_EPOCH": 22830, "BSTAR": 0.00011002, "MEAN_MOTION_DOT": 5.405e-05, "MEAN_MOTION_DDOT": 0}, "tle": {"line1": "1 50032U 82092RU  25361.41182486  .00005405  00000+0  11002-3 0  9992", "line2": "2 50032  82.5633  43.4687 0016738 154.9521 205.2544 15.45840268228303"}}, "geometry": {"type": "Point", "coordinates": [32.90032735355659, -53.71008236192938]}}, {"type": "Feature", "properties": {"norad_id": 50058, "name": "COSMOS 1408 DEB", "group": "cosmos-1408-debris", "lat": 76.8736116701745, "lon": 87.45755631491504, "alt_km": 356.9054263358039, "timestamp": "2025-12-27T17:24:57.675788+00:00", "meta": {"OBJECT_NAME": "COSMOS 1408 DEB", "OBJECT_ID": "1982-092SW", "EPOCH": "2025-12-27T04:48:13.277088", "MEAN_MOTION": 15.64988053, "ECCENTRICITY": 0.0015736, "INCLINATION": 82.6117, "RA_OF_ASC_NODE": 54.1967, "ARG_OF_PERICENTER": 49.4559, "MEAN_ANOMALY": 310.8068, "EPHEMERIS_TYPE": 0, "CLASSIFICATION_TYPE": "U", "NORAD_CAT_ID": 50058, "ELEMENT_SET_NO": 999, "REV_AT_EPOCH": 23030, "BSTAR": 0.00033202, "MEAN_MOTION_DOT": 0.0003285, "MEAN_MOTION_DDOT": 0}, "tle": {"line1": "1 50058U 82092SW  25361.20015367  .00032850  00000+0  33202-3 0  9990", "line2": "2 50058  82.6117  54.1967 0015736  49.4559 310.8068 15.64988053230308"}}, "geometry": {"type": "Point", "coordinates": [87.45755631491504, 76.8736116701745]}}, {"type": "Feature", "properties": {"norad_id": 50404, "name": "COSMOS 1408 DEB", "group": "cosmos-1408-debris", "lat": 36.42457229966191, "lon": -154.53262493318843, "alt_km": 552.4164588330714, "timestamp": "2025-12-27T17:24:57.675801+00:00", "meta": {"OBJECT_NAME": "COSMOS 1408 DEB", "OBJECT_ID": "1982-092ADS", "EPOCH": "2025-12-27T12:29:57.767136", "MEAN_MOTION": 15.16271554, "ECCENTRICITY": 0.0165312, "INCLINATION": 82.2019, "RA_OF_ASC_NODE": 199.8738, "ARG_OF_PERICENTER": 147.9377, "MEAN_ANOMALY": 213.2044, "EPHEMERIS_TYPE": 0, "CLASSIFICATION_TYPE": "U", "NORAD_CAT_ID": 50404, "ELEMENT_SET_NO": 999, "REV_AT_EPOCH": 21417, "BSTAR": 0.0036259, "MEAN_MOTION_DOT": 0.00100867, "MEAN_MOTION_DDOT": 0}, "tle": {"line1": "1 50404U 82092ADS 25361.52080749  .00100867  00000+0  36259-2 0  9994", "line2": "2 50404  82.2019 199.8738 0165312 147.9377 213.2044 15.16271554214176"}}, "geometry": {"type": "Point", "coordinates": [-154.53262493318843, 36.42457229966191]}}, {"type": "Feature", "properties": {"norad_id": 50621, "name": "COSMOS 1408 DEB", "group": "cosmos-1408-debris", "lat": 50.09113568441486, "lon": 67.54706207105804, "alt_km": 377.3902531350341, "timestamp": "2025-12-27T17:24:57.675813+00:00", "meta": {"OBJECT_NAME": "COSMOS 1408 DEB", "OBJECT_ID": "1982-092ALR", "EPOCH": "2025-12-27T04:51:48.023424", "MEAN_MOTION": 15.57410266, "ECCENTRICITY": 0.0029131, "INCLINATION": 82.5697, "RA_OF_ASC_NODE": 59.1152, "ARG_OF_PERICENTER": 100.9036, "MEAN_ANOMALY": 259.5499, "EPHEMERIS_TYPE": 0, "CLASSIFICATION_TYPE": "U", "NORAD_CAT_ID": 50621, "ELEMENT_SET_NO": 999, "REV_AT_EPOCH": 22475, "BSTAR": 0.00036183, "MEAN_MOTION_DOT": 0.00027119, "MEAN_MOTION_DDOT": 0}, "tle": {"line1": "1 50621U 82092ALR 25361.20263916  .00027119  00000+0  36183-3 0  9994", "line2": "2 50621  82.5697  59.1152 0029131 100.9036 259.5499 15.57410266224751"}}, "geometry": {"type": "Point", "coordinates": [67.54706207105804, 50.09113568441486]}}]}